[{"OBJECT_NAME":"ALOS (DAICHI)","OBJECT_ID":"2006-002A","EPOCH":"2026-03-20T14:23:01.543488","MEAN_MOTION":14.69842797,"ECCENTRICITY":7.28e-5,"INCLINATION":98.1238,"RA_OF_ASC_NODE":35.5014,"ARG_OF_PERICENTER":85.1494,"MEAN_ANOMALY":274.9795,"EPHEMERIS_TYPE":0,"CLASSIFICATION_TYPE":"U","NORAD_CAT_ID":28931,"ELEMENT_SET_NO":999,"REV_AT_EPOCH":7508,"BSTAR":0.00021343626,"MEAN_MOTION_DOT":1.226e-5,"MEAN_MOTION_DDOT":0},{"OBJECT_NAME":"H-2A R/B","OBJECT_ID":"2006-002B","EPOCH":"2026-03-20T08:44:17.209248","MEAN_MOTION":15.16635921,"ECCENTRICITY":0.00521907,"INCLINATION":98.2431,"RA_OF_ASC_NODE":227.3087,"ARG_OF_PERICENTER":204.4299,"MEAN_ANOMALY":155.4458,"EPHEMERIS_TYPE":0,"CLASSIFICATION_TYPE":"U","NORAD_CAT_ID":28932,"ELEMENT_SET_NO":999,"REV_AT_EPOCH":9605,"BSTAR":0.00039303323,"MEAN_MOTION_DOT":7.879e-5,"MEAN_MOTION_DDOT":0},{"OBJECT_NAME":"RESURS-DK 1","OBJECT_ID":"2006-021A","EPOCH":"2026-03-20T10:41:42.795744","MEAN_MOTION":15.12814978,"ECCENTRICITY":8.037e-5,"INCLINATION":69.9338,"RA_OF_ASC_NODE":209.1986,"ARG_OF_PERICENTER":131.0661,"MEAN_ANOMALY":229.0575,"EPHEMERIS_TYPE":0,"CLASSIFICATION_TYPE":"U","NORAD_CAT_ID":29228,"ELEMENT_SET_NO":999,"REV_AT_EPOCH":8915,"BSTAR":0.00014478764,"MEAN_MOTION_DOT":2.442e-5,"MEAN_MOTION_DDOT":0},{"OBJECT_NAME":"CZ-4B R/B","OBJECT_ID":"2006-046C","EPOCH":"2026-03-20T08:40:10.400736","MEAN_MOTION":15.17002992,"ECCENTRICITY":0.00320311,"INCLINATION":97.5569,"RA_OF_ASC_NODE":124.2409,"ARG_OF_PERICENTER":228.6285,"MEAN_ANOMALY":131.2193,"EPHEMERIS_TYPE":0,"CLASSIFICATION_TYPE":"U","NORAD_CAT_ID":29507,"ELEMENT_SET_NO":999,"REV_AT_EPOCH":6166,"BSTAR":0.00017002509,"MEAN_MOTION_DOT":3.332e-5,"MEAN_MOTION_DDOT":0},{"OBJECT_NAME":"CZ-2C R/B","OBJECT_ID":"2007-010B","EPOCH":"2026-03-20T07:02:31.900128","MEAN_MOTION":14.20249848,"ECCENTRICITY":0.0057853,"INCLINATION":98.3988,"RA_OF_ASC_NODE":192.0412,"ARG_OF_PERICENTER":263.1763,"MEAN_ANOMALY":96.283,"EPHEMERIS_TYPE":0,"CLASSIFICATION_TYPE":"U","NORAD_CAT_ID":31114,"ELEMENT_SET_NO":999,"REV_AT_EPOCH":98122,"BSTAR":6.8674e-5,"MEAN_MOTION_DOT":1.08e-6,"MEAN_MOTION_DDOT":0},{"OBJECT_NAME":"COSMO-SKYMED 1","OBJECT_ID":"2007-023A","EPOCH":"2026-03-20T13:30:17.246304","MEAN_MOTION":14.96617533,"ECCENTRICITY":0.00013806,"INCLINATION":97.8881,"RA_OF_ASC_NODE":270.6834,"ARG_OF_PERICENTER":87.0893,"MEAN_ANOMALY":273.0486,"EPHEMERIS_TYPE":0,"CLASSIFICATION_TYPE":"U","NORAD_CAT_ID":31598,"ELEMENT_SET_NO":999,"REV_AT_EPOCH":1653,"BSTAR":0.00023360826,"MEAN_MOTION_DOT":2.602e-5,"MEAN_MOTION_DDOT":0},{"OBJECT_NAME":"COSMOS 2428","OBJECT_ID":"2007-029A","EPOCH":"2026-03-20T10:29:29.858496","MEAN_MOTION":14.12947533,"ECCENTRICITY":0.0009533,"INCLINATION":70.9441,"RA_OF_ASC_NODE":180.7865,"ARG_OF_PERICENTER":266.0902,"MEAN_ANOMALY":93.9129,"EPHEMERIS_TYPE":0,"CLASSIFICATION_TYPE":"U","NORAD_CAT_ID":31792,"ELEMENT_SET_NO":999,"REV_AT_EPOCH":96561,"BSTAR":1.7400902e-5,"MEAN_MOTION_DOT":-1.5e-7,"MEAN_MOTION_DDOT":0},{"OBJECT_NAME":"SL-16 R/B","OBJECT_ID":"2007-029B","EPOCH":"2026-03-20T14:44:05.399232","MEAN_MOTION":14.14839613,"ECCENTRICITY":0.00023654,"INCLINATION":70.9757,"RA_OF_ASC_NODE":149.4226,"ARG_OF_PERICENTER":276.6153,"MEAN_ANOMALY":251.2997,"EPHEMERIS_TYPE":0,"CLASSIFICATION_TYPE":"U","NORAD_CAT_ID":31793,"ELEMENT_SET_NO":999,"REV_AT_EPOCH":96691,"BSTAR":0.00020416022,"MEAN_MOTION_DOT":3.46e-6,"MEAN_MOTION_DDOT":0},{"OBJECT_NAME":"KORONAS-FOTON","OBJECT_ID":"2009-003A","EPOCH":"2026-03-20T14:11:24.153792","MEAN_MOTION":15.43575632,"ECCENTRICITY":0.00117876,"INCLINATION":82.4268,"RA_OF_ASC_NODE":264.5398,"ARG_OF_PERICENTER":114.2353,"MEAN_ANOMALY":246.0127,"EPHEMERIS_TYPE":0,"CLASSIFICATION_TYPE":"U","NORAD_CAT_ID":33504,"ELEMENT_SET_NO":999,"REV_AT_EPOCH":94742,"BSTAR":0.00027998942,"MEAN_MOTION_DOT":0.00012649,"MEAN_MOTION_DDOT":0},{"OBJECT_NAME":"CZ-2C R/B","OBJECT_ID":"2011-030B","EPOCH":"2026-03-20T15:28:51.162240","MEAN_MOTION":14.81261155,"ECCENTRICITY":0.00515067,"INCLINATION":97.8564,"RA_OF_ASC_NODE":36.6903,"ARG_OF_PERICENTER":316.0562,"MEAN_ANOMALY":223.0109,"EPHEMERIS_TYPE":0,"CLASSIFICATION_TYPE":"U","NORAD_CAT_ID":37731,"ELEMENT_SET_NO":999,"REV_AT_EPOCH":79171,"BSTAR":0.00018680785,"MEAN_MOTION_DOT":1.434e-5,"MEAN_MOTION_DDOT":0},{"OBJECT_NAME":"H-2A R/B","OBJECT_ID":"2012-025E","EPOCH":"2026-03-20T10:27:43.173504","MEAN_MOTION":14.95237315,"ECCENTRICITY":0.00431119,"INCLINATION":98.4747,"RA_OF_ASC_NODE":47.3439,"ARG_OF_PERICENTER":277.9189,"MEAN_ANOMALY":81.7138,"EPHEMERIS_TYPE":0,"CLASSIFICATION_TYPE":"U","NORAD_CAT_ID":38341,"ELEMENT_SET_NO":999,"REV_AT_EPOCH":74982,"BSTAR":0.00023157315,"MEAN_MOTION_DOT":2.524e-5,"MEAN_MOTION_DDOT":0},{"OBJECT_NAME":"SHIJIAN-16 (SJ-16)","OBJECT_ID":"2013-057A","EPOCH":"2026-03-20T14:57:27.313056","MEAN_MOTION":14.9238736,"ECCENTRICITY":0.00152643,"INCLINATION":74.974,"RA_OF_ASC_NODE":164.392,"ARG_OF_PERICENTER":84.4069,"MEAN_ANOMALY":275.8859,"EPHEMERIS_TYPE":0,"CLASSIFICATION_TYPE":"U","NORAD_CAT_ID":39358,"ELEMENT_SET_NO":999,"REV_AT_EPOCH":67313,"BSTAR":7.0199172e-5,"MEAN_MOTION_DOT":6.91e-6,"MEAN_MOTION_DDOT":0},{"OBJECT_NAME":"SL-4 R/B","OBJECT_ID":"2014-021B","EPOCH":"2026-03-20T14:24:19.557504","MEAN_MOTION":15.39517295,"ECCENTRICITY":0.00966439,"INCLINATION":51.6053,"RA_OF_ASC_NODE":284.0367,"ARG_OF_PERICENTER":142.7024,"MEAN_ANOMALY":218.0723,"EPHEMERIS_TYPE":0,"CLASSIFICATION_TYPE":"U","NORAD_CAT_ID":39679,"ELEMENT_SET_NO":999,"REV_AT_EPOCH":65795,"BSTAR":0.00030694127,"MEAN_MOTION_DOT":0.00013997,"MEAN_MOTION_DDOT":0},{"OBJECT_NAME":"ALOS-2","OBJECT_ID":"2014-029A","EPOCH":"2026-03-20T12:57:14.051808","MEAN_MOTION":14.79410984,"ECCENTRICITY":0.00017739,"INCLINATION":97.9196,"RA_OF_ASC_NODE":177.9796,"ARG_OF_PERICENTER":109.0425,"MEAN_ANOMALY":251.0979,"EPHEMERIS_TYPE":0,"CLASSIFICATION_TYPE":"U","NORAD_CAT_ID":39766,"ELEMENT_SET_NO":999,"REV_AT_EPOCH":63847,"BSTAR":0.00010059242,"MEAN_MOTION_DOT":6.99e-6,"MEAN_MOTION_DDOT":0},{"OBJECT_NAME":"YAOGAN-29","OBJECT_ID":"2015-069A","EPOCH":"2026-03-20T14:09:33.818400","MEAN_MOTION":14.83007749,"ECCENTRICITY":0.00012018,"INCLINATION":98.0125,"RA_OF_ASC_NODE":108.0478,"ARG_OF_PERICENTER":20.1432,"MEAN_ANOMALY":339.9828,"EPHEMERIS_TYPE":0,"CLASSIFICATION_TYPE":"U","NORAD_CAT_ID":41038,"ELEMENT_SET_NO":999,"REV_AT_EPOCH":55749,"BSTAR":6.188195e-5,"MEAN_MOTION_DOT":4.49e-6,"MEAN_MOTION_DDOT":0},{"OBJECT_NAME":"ASTRO-H (HITOMI)","OBJECT_ID":"2016-012A","EPOCH":"2026-03-20T14:33:55.320192","MEAN_MOTION":15.10071937,"ECCENTRICITY":0.00096031,"INCLINATION":30.9992,"RA_OF_ASC_NODE":286.0932,"ARG_OF_PERICENTER":80.993,"MEAN_ANOMALY":279.1794,"EPHEMERIS_TYPE":0,"CLASSIFICATION_TYPE":"U","NORAD_CAT_ID":41337,"ELEMENT_SET_NO":999,"REV_AT_EPOCH":55388,"BSTAR":0.00016909137,"MEAN_MOTION_DOT":2.918e-5,"MEAN_MOTION_DDOT":0}]
