ALOS (DAICHI)           
1 28931U 06002A   26079.59932342  .00001226  00000+0  21344-3 0  9999
2 28931  98.1238  35.5014 0000728  85.1494 274.9795 14.69842797 75082
H-2A R/B                
1 28932U 06002B   26079.36408807  .00007879  00000+0  39303-3 0  9993
2 28932  98.2431 227.3087 0052190 204.4299 155.4458 15.16635921 96050
RESURS-DK 1             
1 29228U 06021A   26079.44563421  .00002442  00000+0  14479-3 0  9994
2 29228  69.9338 209.1986 0000803 131.0661 229.0575 15.12814978 89156
CZ-4B R/B               
1 29507U 06046C   26079.36123149  .00003332  00000+0  17003-3 0  9996
2 29507  97.5569 124.2409 0032031 228.6285 131.2193 15.17002992 61665
CZ-2C R/B               
1 31114U 07010B   26079.29342477  .00000108  00000+0  68674-4 0  9993
2 31114  98.3988 192.0412 0057853 263.1763  96.2830 14.20249848981224
COSMO-SKYMED 1          
1 31598U 07023A   26079.56269961  .00002602  00000+0  23361-3 0  9993
2 31598  97.8881 270.6834 0001380  87.0893 273.0486 14.96617533 16536
COSMOS 2428             
1 31792U 07029A   26079.43715114 -.00000015  00000+0  17401-4 0  9993
2 31792  70.9441 180.7865 0009533 266.0902  93.9129 14.12947533965618
SL-16 R/B               
1 31793U 07029B   26079.61395138  .00000346  00000+0  20416-3 0  9999
2 31793  70.9757 149.4226 0002365 276.6153 251.2997 14.14839613966910
KORONAS-FOTON           
1 33504U 09003A   26079.59125178  .00012649  00000+0  27999-3 0  9999
2 33504  82.4268 264.5398 0011787 114.2353 246.0127 15.43575632947426
CZ-2C R/B               
1 37731U 11030B   26079.64503660  .00001434  00000+0  18681-3 0  9998
2 37731  97.8564  36.6903 0051506 316.0562 223.0109 14.81261155791715
H-2A R/B                
1 38341U 12025E   26079.43591636  .00002524  00000+0  23157-3 0  9993
2 38341  98.4747  47.3439 0043111 277.9189  81.7138 14.95237315749821
SHIJIAN-16 (SJ-16)      
1 39358U 13057A   26079.62323279  .00000691  00000+0  70199-4 0  9997
2 39358  74.9740 164.3920 0015264  84.4069 275.8859 14.92387360673132
SL-4 R/B                
1 39679U 14021B   26079.60022636  .00013997  00000+0  30694-3 0  9994
2 39679  51.6053 284.0367 0096643 142.7024 218.0723 15.39517295657956
ALOS-2                  
1 39766U 14029A   26079.53974597  .00000699  00000+0  10059-3 0  9991
2 39766  97.9196 177.9796 0001773 109.0425 251.0979 14.79410984638477
YAOGAN-29               
1 41038U 15069A   26079.58997475  .00000449  00000+0  61882-4 0  9990
2 41038  98.0125 108.0478 0001201  20.1432 339.9828 14.83007749557492
ASTRO-H (HITOMI)        
1 41337U 16012A   26079.60689028  .00002918  00000+0  16909-3 0  9998
2 41337  30.9992 286.0932 0009603  80.9930 279.1794 15.10071937553881
